{"spkid": "20791587", "covariance": {"data": [["3.630146255420783E-13", "-3.666452784614925E-13", "-6.801972036698434E-12", "-3.806965225546992E-12", "-1.924379319702242E-11", "1.358350795071902E-12"], ["-3.666452784614925E-13", "3.703232993310124E-13", "6.899758817093737E-12", "3.809171607158289E-12", "1.947981245413107E-11", "-1.37422863437999E-12"], ["-6.801972036698434E-12", "6.899758817093737E-12", "2.569075862411246E-10", "1.466355719926096E-10", "3.234103056058579E-10", "-2.571942335150259E-11"], ["-3.806965225546992E-12", "3.809171607158289E-12", "1.466355719926096E-10", "1.029990487945067E-8", "-1.00307002586577E-8", "6.257644644500871E-10"], ["-1.924379319702242E-11", "1.947981245413107E-11", "3.234103056058579E-10", "-1.00307002586577E-8", "1.124102056654181E-8", "-7.116510101220757E-10"], ["1.358350795071902E-12", "-1.37422863437999E-12", "-2.571942335150259E-11", "6.257644644500871E-10", "-7.116510101220757E-10", "5.34118949803793E-11"]], "elements": [{"label": "e", "value": ".5948227671012051", "title": "eccentricity", "units": null, "sigma": 6.02506950617234e-07, "name": "e"}, {"label": "q", "units": "au", "title": "perihelion distance", "value": ".3981902302440272", "name": "q", "sigma": 6.08541945416265e-07}, {"label": "tp", "units": "TDB", "value": "2459509.714259494718", "title": "time of perihelion passage", "sigma": 1.60283369767772e-05, "name": "tp"}, {"sigma": 0.000101488447024529, "name": "om", "value": "268.4556514140578", "title": "longitude of the ascending node", "units": "deg", "label": "node"}, {"sigma": 0.000106023679272801, "name": "w", "title": "argument of perihelion", "value": "73.79745374472223", "units": "deg", "label": "peri"}, {"label": "i", "title": "inclination", "value": "2.643226929261856", "units": "deg", "sigma": 7.30834420237439e-06, "name": "i"}], "labels": ["e", "q", "tp", "node", "peri", "i"], "epoch": "2459598.5"}, "elements": [{"sigma": "6.0274E-7", "name": "e", "units": null, "title": "eccentricity", "value": ".594828058337126", "label": "e"}, {"label": "a", "title": "semi-major axis", "value": ".9827201852035665", "units": "au", "name": "a", "sigma": "3.9339E-8"}, {"label": "q", "sigma": "6.0796E-7", "name": "q", "units": "au", "value": ".3981706455502281", "title": "perihelion distance"}, {"units": "deg", "value": "2.642618482813453", "title": "inclination; angle with respect to x-y ecliptic plane", "name": "i", "sigma": "7.304E-6", "label": "i"}, {"label": "node", "name": "om", "sigma": ".00010156", "title": "longitude of the ascending node", "value": "268.4118262583654", "units": "deg"}, {"label": "peri", "sigma": ".00010604", "name": "w", "title": "argument of perihelion", "value": "73.83564298674355", "units": "deg"}, {"sigma": ".00011827", "name": "ma", "units": "deg", "title": "mean anomaly", "value": "270.5449256991261", "label": "M"}, {"label": "tp", "title": "time of perihelion passage", "value": "2461288.919025035788", "units": "TDB", "sigma": ".00012219", "name": "tp"}, {"value": "355.8305580947104", "title": "sidereal orbital period", "units": "d", "sigma": "2.1366E-5", "name": "per", "label": "period"}, {"label": "n", "sigma": "6.0749E-8", "name": "n", "units": "deg/d", "value": "1.011717492526822", "title": "mean motion"}, {"units": "au", "value": "1.567269724856905", "title": "aphelion distance", "name": "ad", "sigma": "6.2738E-8", "label": "Q"}], "epoch": "2461200.5"}